{
  "type": "FeatureCollection",
  "_comment": "Zones sensibles de DÉMONSTRATION (mode mock et cœurs de parcs nationaux). Contours TRÈS APPROXIMATIFS : la référence est Biodiv'Sports et les décrets des parcs.",
  "features": [
    {"type": "Feature", "properties": {"id": "fixture:park-vanoise", "name": "Cœur du Parc national de la Vanoise", "species": null, "kind": "national_park_core",
      "period_months": [1,2,3,4,5,6,7,8,9,10,11,12], "recommendation": "Décollage et atterrissage interdits dans le cœur du parc ; survol à plus de 1000 m/sol (décret du parc).",
      "min_height_agl_m": 1000, "source": "fixture", "url": "https://www.vanoise-parcnational.fr", "always_included": true},
     "geometry": {"type": "Polygon", "coordinates": [[[6.62, 45.28], [6.85, 45.22], [7.10, 45.30], [7.12, 45.45], [6.95, 45.52], [6.72, 45.48], [6.62, 45.28]]]}},
    {"type": "Feature", "properties": {"id": "fixture:park-ecrins", "name": "Cœur du Parc national des Écrins", "species": null, "kind": "national_park_core",
      "period_months": [1,2,3,4,5,6,7,8,9,10,11,12], "recommendation": "Décollage et atterrissage interdits dans le cœur du parc ; survol à plus de 1000 m/sol (décret du parc).",
      "min_height_agl_m": 1000, "source": "fixture", "url": "https://www.ecrins-parcnational.fr", "always_included": true},
     "geometry": {"type": "Polygon", "coordinates": [[[6.08, 44.78], [6.30, 44.70], [6.55, 44.78], [6.60, 44.98], [6.42, 45.08], [6.18, 45.02], [6.08, 44.78]]]}},
    {"type": "Feature", "properties": {"id": "fixture:park-mercantour", "name": "Cœur du Parc national du Mercantour", "species": null, "kind": "national_park_core",
      "period_months": [1,2,3,4,5,6,7,8,9,10,11,12], "recommendation": "Décollage et atterrissage interdits dans le cœur du parc ; survol à plus de 1000 m/sol (décret du parc).",
      "min_height_agl_m": 1000, "source": "fixture", "url": "https://www.mercantour-parcnational.fr", "always_included": true},
     "geometry": {"type": "Polygon", "coordinates": [[[6.75, 44.18], [7.00, 44.05], [7.35, 44.02], [7.55, 44.12], [7.40, 44.30], [7.00, 44.35], [6.80, 44.32], [6.75, 44.18]]]}},
    {"type": "Feature", "properties": {"id": "fixture:zs-lanfon", "name": "Zone de quiétude – Dents de Lanfon", "species": "Faucon pèlerin", "kind": "species",
      "period_months": [2,3,4,5,6,7], "recommendation": "Période de nidification : ne pas survoler les falaises à moins de 300 m, s'écarter latéralement.",
      "min_height_agl_m": 300, "source": "fixture", "url": "https://biodiv-sports.fr"},
     "geometry": {"type": "Polygon", "coordinates": [[[6.238, 45.862], [6.256, 45.862], [6.258, 45.876], [6.240, 45.877], [6.238, 45.862]]]}},
    {"type": "Feature", "properties": {"id": "fixture:zs-aiguilles-rouges", "name": "Réserve naturelle des Aiguilles Rouges", "species": null, "kind": "regulatory",
      "period_months": [1,2,3,4,5,6,7,8,9,10,11,12], "recommendation": "Parapente et autres sports aériens interdits dans la zone (réserve naturelle, comme sur Biodiv'Sports).",
      "min_height_agl_m": null, "flight_prohibited": true, "source": "fixture", "url": "https://www.asters.asso.fr"},
     "geometry": {"type": "Polygon", "coordinates": [[[6.84, 45.95], [6.92, 45.97], [6.95, 46.03], [6.88, 46.04], [6.83, 45.99], [6.84, 45.95]]]}},
    {"type": "Feature", "properties": {"id": "fixture:zs-gypaete-bornes", "name": "Zone de sensibilité – Gypaète barbu (Bornes-Aravis)", "species": "Gypaète barbu", "kind": "species",
      "period_months": [11,12,1,2,3,4,5,6,7], "recommendation": "Site de nidification : rester à plus de 1000 m de l'aire, pas de survol bas de novembre à juillet.",
      "min_height_agl_m": 500, "source": "fixture", "url": "https://biodiv-sports.fr"},
     "geometry": {"type": "Polygon", "coordinates": [[[6.40, 45.93], [6.46, 45.93], [6.46, 45.97], [6.40, 45.97], [6.40, 45.93]]]}},
    {"type": "Feature", "properties": {"id": "fixture:zs-chartreuse", "name": "Zone de quiétude – falaises de la Dent de Crolles", "species": "Aigle royal", "kind": "species",
      "period_months": [1,2,3,4,5,6], "recommendation": "Nidification de l'aigle royal : survoler à plus de 300 m des falaises.",
      "min_height_agl_m": 300, "source": "fixture", "url": "https://biodiv-sports.fr"},
     "geometry": {"type": "Polygon", "coordinates": [[[5.850, 45.298], [5.866, 45.298], [5.866, 45.318], [5.850, 45.318], [5.850, 45.298]]]}}
  ]
}
